[{"OBJECT_NAME":"STARLINK-1403","OBJECT_ID":"2020-035AW","EPOCH":"2026-03-10T00:00:02.999808","MEAN_MOTION":15.19325727,"ECCENTRICITY":0.00024214,"INCLINATION":53.1122,"RA_OF_ASC_NODE":34.9104,"ARG_OF_PERICENTER":86.0749,"MEAN_ANOMALY":53.6572,"EPHEMERIS_TYPE":0,"CLASSIFICATION_TYPE":"U","NORAD_CAT_ID":45701,"ELEMENT_SET_NO":999,"REV_AT_EPOCH":574,"BSTAR":0.080644378,"MEAN_MOTION_DOT":0.01904972,"MEAN_MOTION_DDOT":0},{"OBJECT_NAME":"SCS-01 K","OBJECT_ID":"2025-100K","EPOCH":"2026-03-09T23:34:24.068928","MEAN_MOTION":15.20905927,"ECCENTRICITY":0.0009688,"INCLINATION":97.3704,"RA_OF_ASC_NODE":143.9421,"ARG_OF_PERICENTER":311.1464,"MEAN_ANOMALY":48.8935,"EPHEMERIS_TYPE":0,"CLASSIFICATION_TYPE":"U","NORAD_CAT_ID":63991,"ELEMENT_SET_NO":999,"REV_AT_EPOCH":4554,"BSTAR":0.00099261902,"MEAN_MOTION_DOT":0.00021955,"MEAN_MOTION_DDOT":0}]
